{"type":"FeatureCollection","features":[{"type":"Feature","properties":{"provincia":"Concepción"},"geometry":{"type":"MultiPolygon","coordinates":[[[[-73.221,-36.7859],[-73.1917,-36.7466],[-73.1746,-36.7597],[-73.1534,-36.7649],[-73.1282,-36.7383],[-73.1625,-36.7125],[-73.1409,-36.6911],[-73.1065,-36.6151],[-73.1068,-36.7207],[-73.0102,-36.7377],[-72.9742,-36.6912],[-72.9595,-36.6904],[-72.9844,-36.6727],[-72.9565,-36.6264],[-73.0019,-36.5786],[-72.9757,-36.5259],[-72.9532,-36.5234],[-72.9534,-36.555],[-72.9319,-36.5434],[-72.888,-36.4434],[-72.8097,-36.4597],[-72.8011,-36.5107],[-72.8273,-36.5274],[-72.7983,-36.6053],[-72.7337,-36.6172],[-72.7193,-36.6548],[-72.6965,-36.6528],[-72.6171,-36.6911],[-72.5854,-36.7483],[-72.5927,-36.8159],[-72.5384,-36.8495],[-72.5726,-36.8657],[-72.5708,-36.8937],[-72.6445,-36.8842],[-72.6474,-36.9523],[-72.6831,-36.9371],[-72.742,-36.9541],[-72.7421,-36.9569],[-72.7373,-36.9588],[-72.774,-37.0014],[-72.7241,-37.0392],[-72.7761,-37.0771],[-72.764,-37.1381],[-72.8237,-37.1999],[-72.8858,-37.1834],[-72.854,-37.2022],[-72.7704,-37.211],[-72.7267,-37.2942],[-72.7499,-37.3229],[-72.803,-37.3081],[-72.8113,-37.3443],[-72.9235,-37.3536],[-72.9787,-37.4511],[-73.1217,-37.428],[-73.134,-37.3543],[-73.0664,-37.2563],[-73.1179,-37.2171],[-73.0684,-37.1964],[-73.1159,-37.1538],[-73.1725,-37.16],[-73.1854,-37.1523],[-73.1532,-37.117],[-73.1742,-37.0887],[-73.1552,-37.073],[-73.141,-37.0678],[-73.1459,-37.0407],[-73.1882,-36.9995],[-73.1534,-36.9043],[-73.1631,-36.8157],[-73.1747,-36.8137],[-73.1929,-36.7818],[-73.2117,-36.7867],[-73.221,-36.7859]],[[-72.749,-36.7265],[-72.7484,-36.7302],[-72.7372,-36.7287],[-72.7219,-36.7156],[-72.7245,-36.7144],[-72.749,-36.7265]],[[-72.8565,-36.8891],[-72.8603,-36.8904],[-72.8515,-36.9167],[-72.8452,-36.9168],[-72.844,-36.9142],[-72.8565,-36.8891]],[[-72.8674,-36.8553],[-72.8643,-36.8575],[-72.8452,-36.8384],[-72.853,-36.818],[-72.8674,-36.8553]],[[-72.9416,-36.9066],[-72.9463,-36.9044],[-72.9453,-36.9086],[-72.9416,-36.9066]],[[-72.9649,-37.1246],[-72.9684,-37.1263],[-72.9603,-37.1455],[-72.9441,-37.1532],[-72.9436,-37.1504],[-72.9649,-37.1246]],[[-72.9573,-36.8691],[-72.9575,-36.8651],[-73.0213,-36.8598],[-72.989,-36.8759],[-72.9573,-36.8691]],[[-72.9771,-37.0691],[-72.9913,-37.0716],[-72.9796,-37.0972],[-72.9706,-37.0503],[-72.9771,-37.0691]],[[-73.0205,-37.0716],[-73.0344,-37.0951],[-73.0334,-37.0979],[-72.9999,-37.0726],[-73.0205,-37.0716]],[[-73.0325,-36.952],[-73.0271,-36.9543],[-73.025,-36.9524],[-73.0466,-36.9014],[-73.0325,-36.952]],[[-73.044,-36.773],[-73.0437,-36.7761],[-73.0397,-36.7759],[-73.0339,-36.7663],[-73.044,-36.773]],[[-73.1566,-36.8154],[-73.1573,-36.8193],[-73.0794,-36.8359],[-73.0909,-36.8216],[-73.1566,-36.8154]]],[[[-73.1647,-37.107],[-73.1642,-37.1077],[-73.1651,-37.1072],[-73.1647,-37.107]]],[[[-73.1372,-36.6715],[-73.1377,-36.6723],[-73.1376,-36.6715],[-73.1372,-36.6715]]],[[[-73.0713,-36.6478],[-73.049,-36.604],[-73.0472,-36.6041],[-73.0513,-36.6286],[-73.0583,-36.6339],[-73.0552,-36.643],[-73.0713,-36.6478]]],[[[-73.556,-37.0256],[-73.5232,-36.9721],[-73.5208,-37.0069],[-73.454,-37.0515],[-73.5082,-37.0433],[-73.5202,-37.0781],[-73.556,-37.0256]]]]}},{"type":"Feature","properties":{"provincia":"Arauco"},"geometry":{"type":"MultiPolygon","coordinates":[[[[-73.685,-37.3674],[-73.6839,-37.3355],[-73.6557,-37.2991],[-73.6495,-37.2027],[-73.5873,-37.1453],[-73.5425,-37.2045],[-73.457,-37.2046],[-73.43,-37.2388],[-73.3877,-37.244],[-73.2685,-37.2237],[-73.1866,-37.1525],[-73.099,-37.1629],[-73.0801,-37.202],[-73.1167,-37.2243],[-73.0656,-37.2558],[-73.1306,-37.3531],[-73.1269,-37.3558],[-73.1215,-37.4273],[-72.9859,-37.4461],[-73.0808,-37.6768],[-73.1179,-37.6833],[-73.1144,-37.7055],[-73.1014,-37.7261],[-73.0405,-37.71],[-73.0156,-37.7473],[-73.041,-37.7802],[-73.0234,-37.8043],[-73.0767,-37.8624],[-73.1247,-37.8777],[-73.12,-37.9594],[-73.1861,-37.9883],[-73.2057,-38.0516],[-73.0814,-38.0951],[-73.0727,-38.1238],[-73.0924,-38.1918],[-73.1306,-38.1841],[-73.1383,-38.2156],[-73.2012,-38.2313],[-73.2222,-38.2719],[-73.2801,-38.2967],[-73.3392,-38.3635],[-73.3382,-38.3664],[-73.3079,-38.3747],[-73.3085,-38.412],[-73.2722,-38.4354],[-73.2746,-38.49],[-73.3213,-38.4823],[-73.3207,-38.4374],[-73.3822,-38.3991],[-73.4738,-38.473],[-73.5172,-38.4811],[-73.5295,-38.3872],[-73.4988,-38.3374],[-73.514,-38.2608],[-73.4673,-38.229],[-73.4521,-38.1163],[-73.4493,-38.1141],[-73.5452,-37.8697],[-73.5813,-37.8166],[-73.6575,-37.7261],[-73.6801,-37.6265],[-73.6453,-37.5565],[-73.5981,-37.5279],[-73.596,-37.4376],[-73.6122,-37.4153],[-73.6348,-37.3752],[-73.685,-37.3674]],[[-73.1445,-37.7133],[-73.1453,-37.7094],[-73.2142,-37.7223],[-73.2242,-37.7378],[-73.1445,-37.7133]],[[-73.2454,-37.7465],[-73.2411,-37.7427],[-73.3415,-37.7012],[-73.3405,-37.7039],[-73.2454,-37.7465]],[[-73.3176,-38.1084],[-73.3149,-38.1105],[-73.3019,-38.103],[-73.3106,-38.0723],[-73.3176,-38.1084]],[[-73.3807,-37.5478],[-73.3999,-37.5511],[-73.4012,-37.5535],[-73.3302,-37.5845],[-73.3807,-37.5478]],[[-73.3746,-37.7099],[-73.3715,-37.7094],[-73.3679,-37.6976],[-73.3825,-37.7005],[-73.3746,-37.7099]],[[-73.4452,-37.3688],[-73.4438,-37.3723],[-73.4266,-37.3673],[-73.4083,-37.3401],[-73.4112,-37.3397],[-73.4452,-37.3688]],[[-73.4375,-37.5496],[-73.4234,-37.4956],[-73.4249,-37.4932],[-73.454,-37.5526],[-73.4516,-37.5543],[-73.4375,-37.5496]],[[-73.5343,-37.5858],[-73.536,-37.5892],[-73.5221,-37.5986],[-73.5294,-37.5869],[-73.5343,-37.5858]]],[[[-73.9507,-38.3161],[-73.8657,-38.3689],[-73.886,-38.4184],[-73.9399,-38.4179],[-73.9507,-38.3161]]]]}},{"type":"Feature","properties":{"provincia":"Biobío"},"geometry":{"type":"Polygon","coordinates":[[[-73.0674,-37.624],[-73.0136,-37.5582],[-73.0235,-37.4989],[-72.9692,-37.4478],[-72.9432,-37.3702],[-72.8971,-37.344],[-72.8122,-37.3441],[-72.8034,-37.3073],[-72.7493,-37.3215],[-72.7306,-37.2786],[-72.7681,-37.2132],[-72.8237,-37.1999],[-72.7643,-37.1382],[-72.7765,-37.077],[-72.7249,-37.0379],[-72.7744,-36.9965],[-72.7044,-36.9394],[-72.6504,-36.952],[-72.6485,-36.9184],[-72.516,-36.9339],[-72.5022,-36.8957],[-72.4207,-36.9308],[-72.3853,-36.9118],[-72.3259,-36.9814],[-72.1918,-37.0307],[-72.1872,-37.0531],[-72.2613,-37.0931],[-72.2758,-37.1945],[-72.274,-37.1968],[-72.1182,-37.1789],[-72.0628,-37.1972],[-72.0662,-37.1678],[-72.0358,-37.1656],[-71.9902,-37.1931],[-71.8902,-37.1825],[-71.797,-37.1086],[-71.687,-37.1443],[-71.5633,-37.1338],[-71.5302,-37.0678],[-71.4959,-37.1035],[-71.4928,-37.1028],[-71.5137,-37.0675],[-71.5439,-37.0627],[-71.5516,-37.0196],[-71.5104,-37.0045],[-71.4105,-37.0896],[-71.3841,-37.0671],[-71.27,-37.1115],[-71.0962,-37.1096],[-71.1342,-37.1425],[-71.1148,-37.2067],[-71.1693,-37.2251],[-71.1873,-37.2762],[-71.2112,-37.2746],[-71.1992,-37.3805],[-71.1518,-37.4022],[-71.1175,-37.4886],[-71.1496,-37.5393],[-71.128,-37.5876],[-71.2147,-37.6536],[-71.2006,-37.6543],[-71.2089,-37.6988],[-71.1255,-37.8219],[-71.1784,-37.8573],[-71.1408,-37.8592],[-71.1071,-37.891],[-71.1137,-37.9512],[-71.0617,-37.9704],[-71.0555,-38.0443],[-70.992,-38.0834],[-70.9906,-38.1109],[-71.0449,-38.1222],[-71.0859,-38.0897],[-71.2828,-38.1104],[-71.3553,-38.0845],[-71.4149,-38.1065],[-71.4101,-38.1236],[-71.4345,-38.1754],[-71.5314,-38.2039],[-71.5536,-38.2461],[-71.6087,-38.2414],[-71.6435,-38.314],[-71.7093,-38.2659],[-71.6886,-38.2454],[-71.7155,-38.21],[-71.6946,-38.1689],[-71.7214,-38.1462],[-71.7014,-38.069],[-71.7379,-38.0413],[-71.7764,-38.0304],[-71.8887,-38.0755],[-71.9654,-37.9946],[-72.0491,-38.0141],[-72.102,-37.9987],[-72.1293,-37.9529],[-72.2448,-37.8786],[-72.3177,-37.8815],[-72.4005,-37.8423],[-72.4794,-37.7479],[-72.4826,-37.5946],[-72.4855,-37.5962],[-72.4916,-37.6553],[-72.6509,-37.6646],[-72.6363,-37.6069],[-72.655,-37.6254],[-72.7272,-37.626],[-72.7765,-37.5819],[-72.9274,-37.6197],[-73.0674,-37.624]],[[-71.229,-37.657],[-71.2276,-37.6538],[-71.2836,-37.5844],[-71.3084,-37.5705],[-71.2434,-37.6577],[-71.229,-37.657]],[[-71.3549,-37.5395],[-71.3579,-37.5416],[-71.3526,-37.5491],[-71.3653,-37.559],[-71.3651,-37.5621],[-71.332,-37.5564],[-71.3549,-37.5395]],[[-71.3901,-37.5782],[-71.3874,-37.5978],[-71.385,-37.5991],[-71.3829,-37.5762],[-71.3854,-37.5748],[-71.3901,-37.5782]],[[-71.3846,-37.6314],[-71.3868,-37.6293],[-71.3987,-37.6324],[-71.3865,-37.6337],[-71.3846,-37.6314]],[[-71.4532,-38.053],[-71.455,-38.0566],[-71.4373,-38.0642],[-71.4394,-38.0582],[-71.4532,-38.053]],[[-71.462,-37.4645],[-71.4621,-37.4711],[-71.442,-37.4657],[-71.4439,-37.4636],[-71.462,-37.4645]],[[-71.5256,-37.3109],[-71.5221,-37.2844],[-71.5239,-37.2822],[-71.5283,-37.3087],[-71.5256,-37.3109]],[[-71.6065,-37.7417],[-71.61,-37.7417],[-71.6146,-37.7565],[-71.6009,-37.7532],[-71.6065,-37.7417]],[[-71.6713,-37.8614],[-71.6745,-37.862],[-71.6741,-37.8681],[-71.6434,-37.892],[-71.6713,-37.8614]],[[-71.6633,-37.7779],[-71.6664,-37.7756],[-71.6865,-37.7966],[-71.6782,-37.8074],[-71.6633,-37.7779]],[[-71.7045,-37.54],[-71.7007,-37.5403],[-71.6998,-37.5377],[-71.7048,-37.5358],[-71.7045,-37.54]],[[-71.9522,-37.3107],[-71.9552,-37.3134],[-71.9245,-37.3478],[-71.9204,-37.3475],[-71.9522,-37.3107]],[[-72.085,-37.6481],[-72.1274,-37.6559],[-72.129,-37.6583],[-72.0795,-37.653],[-72.0796,-37.6502],[-72.085,-37.6481]],[[-72.1437,-37.6765],[-72.1595,-37.662],[-72.1722,-37.6664],[-72.1437,-37.6765]],[[-72.2038,-37.6365],[-72.2068,-37.6391],[-72.187,-37.6618],[-72.1766,-37.6647],[-72.1765,-37.6619],[-72.2038,-37.6365]],[[-72.533,-37.5801],[-72.4333,-37.5619],[-72.3222,-37.5887],[-72.3197,-37.5869],[-72.3497,-37.5689],[-72.441,-37.5568],[-72.5538,-37.578],[-72.533,-37.5801]],[[-72.5955,-37.531],[-72.5905,-37.5356],[-72.5987,-37.5124],[-72.6429,-37.5317],[-72.6408,-37.5337],[-72.5955,-37.531]],[[-72.6373,-37.2383],[-72.6636,-37.2462],[-72.6644,-37.2489],[-72.637,-37.2411],[-72.6373,-37.2383]],[[-72.6714,-37.3727],[-72.6418,-37.3757],[-72.6398,-37.3738],[-72.6805,-37.3588],[-72.6811,-37.3616],[-72.6714,-37.3727]]]}}]}